[{"OBJECT_NAME":"STARLINK-30444","OBJECT_ID":"2023-144H","EPOCH":"2026-03-09T22:21:59.992704","MEAN_MOTION":15.26756947,"ECCENTRICITY":0.00014404,"INCLINATION":43.001,"RA_OF_ASC_NODE":283.9041,"ARG_OF_PERICENTER":293.3317,"MEAN_ANOMALY":66.7382,"EPHEMERIS_TYPE":0,"CLASSIFICATION_TYPE":"U","NORAD_CAT_ID":57871,"ELEMENT_SET_NO":999,"REV_AT_EPOCH":13739,"BSTAR":0.00088529743,"MEAN_MOTION_DOT":0.00023575,"MEAN_MOTION_DDOT":0},{"OBJECT_NAME":"OBJECT F","OBJECT_ID":"2026-023F","EPOCH":"2026-03-09T17:11:01.401216","MEAN_MOTION":15.23264948,"ECCENTRICITY":0.00223432,"INCLINATION":96.6318,"RA_OF_ASC_NODE":144.1544,"ARG_OF_PERICENTER":121.6413,"MEAN_ANOMALY":238.701,"EPHEMERIS_TYPE":0,"CLASSIFICATION_TYPE":"U","NORAD_CAT_ID":67679,"ELEMENT_SET_NO":999,"REV_AT_EPOCH":484,"BSTAR":0.00053756888,"MEAN_MOTION_DOT":0.00012778,"MEAN_MOTION_DDOT":0}]
